[{"OBJECT_NAME":"STARLINK-5690","OBJECT_ID":"2023-015AH","EPOCH":"2026-03-09T22:00:01.999584","MEAN_MOTION":15.14430175,"ECCENTRICITY":0.00019521,"INCLINATION":43.0002,"RA_OF_ASC_NODE":337.2039,"ARG_OF_PERICENTER":258.0458,"MEAN_ANOMALY":99.5541,"EPHEMERIS_TYPE":0,"CLASSIFICATION_TYPE":"U","NORAD_CAT_ID":55480,"ELEMENT_SET_NO":999,"REV_AT_EPOCH":577,"BSTAR":0.0026064123,"MEAN_MOTION_DOT":0.00048862,"MEAN_MOTION_DDOT":0},{"OBJECT_NAME":"DEAR-5","OBJECT_ID":"2025-296B","EPOCH":"2026-03-09T23:49:47.465472","MEAN_MOTION":15.17623217,"ECCENTRICITY":0.00202983,"INCLINATION":41.3572,"RA_OF_ASC_NODE":323.7156,"ARG_OF_PERICENTER":262.6695,"MEAN_ANOMALY":97.1819,"EPHEMERIS_TYPE":0,"CLASSIFICATION_TYPE":"U","NORAD_CAT_ID":67070,"ELEMENT_SET_NO":999,"REV_AT_EPOCH":1320,"BSTAR":0.00032921308,"MEAN_MOTION_DOT":6.585e-5,"MEAN_MOTION_DDOT":0}]
